ALOS (DAICHI)           
1 28931U 06002A   25351.73419158  .00001110  00000+0  19545-3 0  9994
2 28931  98.1098 303.1864 0001361 113.5739 246.5610 14.69501788 61443
H-2A R/B                
1 28932U 06002B   25357.88380314  .00009789  00000+0  51189-3 0  9998
2 28932  98.2325 133.5443 0054792 138.7314 221.8078 15.14782079 82958
RESURS-DK 1             
1 29228U 06021A   25357.61252053  .00002729  00000+0  16371-3 0  9998
2 29228  69.9337  73.7385 0006872 249.2294 110.8136 15.12217800 76022
CZ-4B R/B               
1 29507U 06046C   25357.85852872  .00005626  00000+0  29237-3 0  9990
2 29507  97.5716  37.9664 0034259 167.7760 192.4312 15.15977309 48553
CZ-2C R/B               
1 31114U 07010B   25357.77975705  .00000145  00000+0  85236-4 0  9994
2 31114  98.3975 109.8750 0059562 153.9994 206.4197 14.20214044968947
COSMO-SKYMED 1          
1 31598U 07023A   25357.95962021  .00003293  00000+0  30003-3 0  9999
2 31598  97.8840 183.4330 0001371  78.6345 281.5029 14.95847218  3583
COSMOS 2428             
1 31792U 07029A   25357.71202007  .00000190  00000+0  12770-3 0  9990
2 31792  70.9366   2.8420 0004294   8.2113 351.9078 14.12894112953367
SL-16 R/B               
1 31793U 07029B   25357.98344183  .00000284  00000+0  17221-3 0  9992
2 31793  70.9762 331.5218 0001875 264.0957 152.5186 14.14818123954664
KORONAS-FOTON           
1 33504U 09003A   25357.98595241  .00009319  00000+0  22143-3 0  9998
2 33504  82.4310 354.4497 0013346  73.5463 286.7249 15.41408886934072
CZ-2C R/B               
1 37731U 11030B   25357.87706963  .00001322  00000+0  17406-3 0  9992
2 37731  97.8431 311.7382 0051496 236.3441 183.0180 14.80934423778874
H-2A R/B                
1 38341U 12025E   25357.88794501  .00003291  00000+0  30515-3 0  9994
2 38341  98.4610 313.9782 0044516 199.0008 160.9552 14.94511173736896
SHIJIAN-16 (SJ-16)      
1 39358U 13057A   25358.00155024  .00001185  00000+0  11943-3 0  9999
2 39358  74.9733 328.3449 0017920 293.7635  66.1673 14.92011342660211
