CCSDS_OMM_VERS = 2.0
CREATION_DATE  = 
ORIGINATOR     = 

OBJECT_NAME    = ALOS (DAICHI)
OBJECT_ID      = 2006-002A
CENTER_NAME    = EARTH
REF_FRAME      = TEME
TIME_SYSTEM    = UTC
MEAN_ELEMENT_THEORY = SGP/SGP4

EPOCH          = 2025-12-17T17:37:14.152512
MEAN_MOTION    = 14.69501788
ECCENTRICITY   = .00013612
INCLINATION    = 98.1098
RA_OF_ASC_NODE = 303.1864
ARG_OF_PERICENTER = 113.5739
MEAN_ANOMALY   = 246.5610

EPHEMERIS_TYPE = 0
CLASSIFICATION_TYPE = U
NORAD_CAT_ID   = 28931
ELEMENT_SET_NO = 999
REV_AT_EPOCH   = 6144
BSTAR          = .19545051E-3
MEAN_MOTION_DOT = .111E-4
MEAN_MOTION_DDOT = 0

CCSDS_OMM_VERS = 2.0
CREATION_DATE  = 
ORIGINATOR     = 

OBJECT_NAME    = H-2A R/B
OBJECT_ID      = 2006-002B
CENTER_NAME    = EARTH
REF_FRAME      = TEME
TIME_SYSTEM    = UTC
MEAN_ELEMENT_THEORY = SGP/SGP4

EPOCH          = 2025-12-23T21:12:40.591296
MEAN_MOTION    = 15.14782079
ECCENTRICITY   = .00547921
INCLINATION    = 98.2325
RA_OF_ASC_NODE = 133.5443
ARG_OF_PERICENTER = 138.7314
MEAN_ANOMALY   = 221.8078

EPHEMERIS_TYPE = 0
CLASSIFICATION_TYPE = U
NORAD_CAT_ID   = 28932
ELEMENT_SET_NO = 999
REV_AT_EPOCH   = 8295
BSTAR          = .51189472E-3
MEAN_MOTION_DOT = .9789E-4
MEAN_MOTION_DDOT = 0

CCSDS_OMM_VERS = 2.0
CREATION_DATE  = 
ORIGINATOR     = 

OBJECT_NAME    = RESURS-DK 1
OBJECT_ID      = 2006-021A
CENTER_NAME    = EARTH
REF_FRAME      = TEME
TIME_SYSTEM    = UTC
MEAN_ELEMENT_THEORY = SGP/SGP4

EPOCH          = 2025-12-23T14:42:01.773792
MEAN_MOTION    = 15.12217800
ECCENTRICITY   = .00068724
INCLINATION    = 69.9337
RA_OF_ASC_NODE = 73.7385
ARG_OF_PERICENTER = 249.2294
MEAN_ANOMALY   = 110.8136

EPHEMERIS_TYPE = 0
CLASSIFICATION_TYPE = U
NORAD_CAT_ID   = 29228
ELEMENT_SET_NO = 999
REV_AT_EPOCH   = 7602
BSTAR          = .16371419E-3
MEAN_MOTION_DOT = .2729E-4
MEAN_MOTION_DDOT = 0

CCSDS_OMM_VERS = 2.0
CREATION_DATE  = 
ORIGINATOR     = 

OBJECT_NAME    = CZ-4B R/B
OBJECT_ID      = 2006-046C
CENTER_NAME    = EARTH
REF_FRAME      = TEME
TIME_SYSTEM    = UTC
MEAN_ELEMENT_THEORY = SGP/SGP4

EPOCH          = 2025-12-23T20:36:16.881408
MEAN_MOTION    = 15.15977309
ECCENTRICITY   = .00342598
INCLINATION    = 97.5716
RA_OF_ASC_NODE = 37.9664
ARG_OF_PERICENTER = 167.7760
MEAN_ANOMALY   = 192.4312

EPHEMERIS_TYPE = 0
CLASSIFICATION_TYPE = U
NORAD_CAT_ID   = 29507
ELEMENT_SET_NO = 999
REV_AT_EPOCH   = 4855
BSTAR          = .29237023E-3
MEAN_MOTION_DOT = .5626E-4
MEAN_MOTION_DDOT = 0

CCSDS_OMM_VERS = 2.0
CREATION_DATE  = 
ORIGINATOR     = 

OBJECT_NAME    = CZ-2C R/B
OBJECT_ID      = 2007-010B
CENTER_NAME    = EARTH
REF_FRAME      = TEME
TIME_SYSTEM    = UTC
MEAN_ELEMENT_THEORY = SGP/SGP4

EPOCH          = 2025-12-23T18:42:51.009120
MEAN_MOTION    = 14.20214044
ECCENTRICITY   = .00595626
INCLINATION    = 98.3975
RA_OF_ASC_NODE = 109.8750
ARG_OF_PERICENTER = 153.9994
MEAN_ANOMALY   = 206.4197

EPHEMERIS_TYPE = 0
CLASSIFICATION_TYPE = U
NORAD_CAT_ID   = 31114
ELEMENT_SET_NO = 999
REV_AT_EPOCH   = 96894
BSTAR          = .85236075E-4
MEAN_MOTION_DOT = .145E-5
MEAN_MOTION_DDOT = 0

CCSDS_OMM_VERS = 2.0
CREATION_DATE  = 
ORIGINATOR     = 

OBJECT_NAME    = COSMO-SKYMED 1
OBJECT_ID      = 2007-023A
CENTER_NAME    = EARTH
REF_FRAME      = TEME
TIME_SYSTEM    = UTC
MEAN_ELEMENT_THEORY = SGP/SGP4

EPOCH          = 2025-12-23T23:01:51.186144
MEAN_MOTION    = 14.95847218
ECCENTRICITY   = .00013716
INCLINATION    = 97.8840
RA_OF_ASC_NODE = 183.4330
ARG_OF_PERICENTER = 78.6345
MEAN_ANOMALY   = 281.5029

EPHEMERIS_TYPE = 0
CLASSIFICATION_TYPE = U
NORAD_CAT_ID   = 31598
ELEMENT_SET_NO = 999
REV_AT_EPOCH   = 358
BSTAR          = .30003156E-3
MEAN_MOTION_DOT = .3293E-4
MEAN_MOTION_DDOT = 0

CCSDS_OMM_VERS = 2.0
CREATION_DATE  = 
ORIGINATOR     = 

OBJECT_NAME    = COSMOS 2428
OBJECT_ID      = 2007-029A
CENTER_NAME    = EARTH
REF_FRAME      = TEME
TIME_SYSTEM    = UTC
MEAN_ELEMENT_THEORY = SGP/SGP4

EPOCH          = 2025-12-23T17:05:18.534048
MEAN_MOTION    = 14.12894112
ECCENTRICITY   = .00042948
INCLINATION    = 70.9366
RA_OF_ASC_NODE = 2.8420
ARG_OF_PERICENTER = 8.2113
MEAN_ANOMALY   = 351.9078

EPHEMERIS_TYPE = 0
CLASSIFICATION_TYPE = U
NORAD_CAT_ID   = 31792
ELEMENT_SET_NO = 999
REV_AT_EPOCH   = 95336
BSTAR          = .12769831E-3
MEAN_MOTION_DOT = .19E-5
MEAN_MOTION_DDOT = 0

CCSDS_OMM_VERS = 2.0
CREATION_DATE  = 
ORIGINATOR     = 

OBJECT_NAME    = SL-16 R/B
OBJECT_ID      = 2007-029B
CENTER_NAME    = EARTH
REF_FRAME      = TEME
TIME_SYSTEM    = UTC
MEAN_ELEMENT_THEORY = SGP/SGP4

EPOCH          = 2025-12-23T23:36:09.374112
MEAN_MOTION    = 14.14818123
ECCENTRICITY   = .00018754
INCLINATION    = 70.9762
RA_OF_ASC_NODE = 331.5218
ARG_OF_PERICENTER = 264.0957
MEAN_ANOMALY   = 152.5186

EPHEMERIS_TYPE = 0
CLASSIFICATION_TYPE = U
NORAD_CAT_ID   = 31793
ELEMENT_SET_NO = 999
REV_AT_EPOCH   = 95466
BSTAR          = .1722074E-3
MEAN_MOTION_DOT = .284E-5
MEAN_MOTION_DDOT = 0

CCSDS_OMM_VERS = 2.0
CREATION_DATE  = 
ORIGINATOR     = 

OBJECT_NAME    = KORONAS-FOTON
OBJECT_ID      = 2009-003A
CENTER_NAME    = EARTH
REF_FRAME      = TEME
TIME_SYSTEM    = UTC
MEAN_ELEMENT_THEORY = SGP/SGP4

EPOCH          = 2025-12-23T23:39:46.288224
MEAN_MOTION    = 15.41408886
ECCENTRICITY   = .00133468
INCLINATION    = 82.4310
RA_OF_ASC_NODE = 354.4497
ARG_OF_PERICENTER = 73.5463
MEAN_ANOMALY   = 286.7249

EPHEMERIS_TYPE = 0
CLASSIFICATION_TYPE = U
NORAD_CAT_ID   = 33504
ELEMENT_SET_NO = 999
REV_AT_EPOCH   = 93407
BSTAR          = .22142747E-3
MEAN_MOTION_DOT = .9319E-4
MEAN_MOTION_DDOT = 0

CCSDS_OMM_VERS = 2.0
CREATION_DATE  = 
ORIGINATOR     = 

OBJECT_NAME    = CZ-2C R/B
OBJECT_ID      = 2011-030B
CENTER_NAME    = EARTH
REF_FRAME      = TEME
TIME_SYSTEM    = UTC
MEAN_ELEMENT_THEORY = SGP/SGP4

EPOCH          = 2025-12-23T21:02:58.816032
MEAN_MOTION    = 14.80934423
ECCENTRICITY   = .00514964
INCLINATION    = 97.8431
RA_OF_ASC_NODE = 311.7382
ARG_OF_PERICENTER = 236.3441
MEAN_ANOMALY   = 183.0180

EPHEMERIS_TYPE = 0
CLASSIFICATION_TYPE = U
NORAD_CAT_ID   = 37731
ELEMENT_SET_NO = 999
REV_AT_EPOCH   = 77887
BSTAR          = .17405867E-3
MEAN_MOTION_DOT = .1322E-4
MEAN_MOTION_DDOT = 0

CCSDS_OMM_VERS = 2.0
CREATION_DATE  = 
ORIGINATOR     = 

OBJECT_NAME    = H-2A R/B
OBJECT_ID      = 2012-025E
CENTER_NAME    = EARTH
REF_FRAME      = TEME
TIME_SYSTEM    = UTC
MEAN_ELEMENT_THEORY = SGP/SGP4

EPOCH          = 2025-12-23T21:18:38.448864
MEAN_MOTION    = 14.94511173
ECCENTRICITY   = .00445164
INCLINATION    = 98.4610
RA_OF_ASC_NODE = 313.9782
ARG_OF_PERICENTER = 199.0008
MEAN_ANOMALY   = 160.9552

EPHEMERIS_TYPE = 0
CLASSIFICATION_TYPE = U
NORAD_CAT_ID   = 38341
ELEMENT_SET_NO = 999
REV_AT_EPOCH   = 73689
BSTAR          = .30515149E-3
MEAN_MOTION_DOT = .3291E-4
MEAN_MOTION_DDOT = 0

CCSDS_OMM_VERS = 2.0
CREATION_DATE  = 
ORIGINATOR     = 

OBJECT_NAME    = SHIJIAN-16 (SJ-16)
OBJECT_ID      = 2013-057A
CENTER_NAME    = EARTH
REF_FRAME      = TEME
TIME_SYSTEM    = UTC
MEAN_ELEMENT_THEORY = SGP/SGP4

EPOCH          = 2025-12-24T00:02:13.940736
MEAN_MOTION    = 14.92011342
ECCENTRICITY   = .00179207
INCLINATION    = 74.9733
RA_OF_ASC_NODE = 328.3449
ARG_OF_PERICENTER = 293.7635
MEAN_ANOMALY   = 66.1673

EPHEMERIS_TYPE = 0
CLASSIFICATION_TYPE = U
NORAD_CAT_ID   = 39358
ELEMENT_SET_NO = 999
REV_AT_EPOCH   = 66021
BSTAR          = .11942724E-3
MEAN_MOTION_DOT = .1185E-4
MEAN_MOTION_DDOT = 0

